[{"OBJECT_NAME":"BANDWAGON-2 OBJECT D","OBJECT_ID":"2024-247D","EPOCH":"2026-03-09T12:32:33.670752","MEAN_MOTION":15.29076102,"ECCENTRICITY":0.00034883,"INCLINATION":44.9954,"RA_OF_ASC_NODE":115.671,"ARG_OF_PERICENTER":351.1453,"MEAN_ANOMALY":8.9368,"EPHEMERIS_TYPE":0,"CLASSIFICATION_TYPE":"U","NORAD_CAT_ID":62380,"ELEMENT_SET_NO":999,"REV_AT_EPOCH":6773,"BSTAR":0.00040119131,"MEAN_MOTION_DOT":0.00011259,"MEAN_MOTION_DDOT":0},{"OBJECT_NAME":"STARLINK-35954","OBJECT_ID":"2025-283H","EPOCH":"2026-03-09T21:42:24.809184","MEAN_MOTION":15.30209685,"ECCENTRICITY":0.0001247,"INCLINATION":53.1599,"RA_OF_ASC_NODE":23.4181,"ARG_OF_PERICENTER":91.0266,"MEAN_ANOMALY":269.0877,"EPHEMERIS_TYPE":0,"CLASSIFICATION_TYPE":"U","NORAD_CAT_ID":66885,"ELEMENT_SET_NO":999,"REV_AT_EPOCH":1587,"BSTAR":0.0011301519,"MEAN_MOTION_DOT":0.00033273,"MEAN_MOTION_DDOT":0}]
